GLOBALSTAR M035         
1 25851U 99037A   25252.20336856 -.00000049  00000+0  56009-3 0  9994
2 25851  51.9918 227.6016 0013381 116.7174 336.5298 11.04539245105548
GLOBALSTAR M032         
1 25852U 99037B   25252.11749195 -.00000067  00000+0 -14511-5 0  9994
2 25852  51.9971  47.1984 0011790 309.8141  50.1620 11.19063216144185
GLOBALSTAR M051         
1 25853U 99037C   25252.24184648 -.00000066  00000+0  13661-3 0  9996
2 25853  51.9774 198.1195 0000931  17.8311 342.2532 11.42205666141994
GLOBALSTAR M030         
1 25854U 99037D   25252.02232424 -.00000093  00000+0 -37801-3 0  9992
2 25854  51.9918 359.4251 0003295 187.9192 172.1573 11.55113410159737
GLOBALSTAR M048         
1 25872U 99041A   25252.24138994 -.00000037  00000+0  88519-3 0  9997
2 25872  51.9357 136.4059 0013491 333.9386 183.1623 11.33858922134517
GLOBALSTAR M026         
1 25873U 99041B   25252.21617200 -.00000044  00000+0  75672-3 0  9991
2 25873  52.0054 344.6484 0001852  63.9526 310.9285 11.06849654157794
GLOBALSTAR M043         
1 25874U 99041C   25252.27751219 -.00000074  00000+0 -16682-3 0  9997
2 25874  51.9371 247.3158 0013443  94.3092   3.1545 11.25696370132347
GLOBALSTAR M028         
1 25875U 99041D   25251.83334983 -.00000013  00000+0  56210-3 0  9997
2 25875  51.9634 303.6493 0063093 252.8154 106.5792 12.50587699200647
